STARLINK-4466           
1 53656U 22105J   25261.66334180 -.00001534  00000+0 -11490-3 0  9994
2 53656  97.6028 141.8057 0002220  58.7308 301.4133 15.01260025167429
STARLINK-4469           
1 53657U 22105K   25261.91668981  .00604463  00000+0  10748-1 0  9993
2 53657  97.6546 144.9632 0001664  83.1182 140.5048 15.47913761  5869
STARLINK-4452           
1 53658U 22105L   25261.93180463  .00000328  00000+0  30098-4 0  9993
2 53658  97.6032 142.0648 0003089  69.2560 290.8995 15.01261311167466
STARLINK-4463           
1 53659U 22105M   25261.93390379  .00000549  00000+0  47279-4 0  9997
2 53659  97.6019 142.0665 0003380  68.4412 291.7172 15.01262090167464
STARLINK-4473           
1 53660U 22105N   25261.65963952 -.00000036  00000+0  17572-5 0  9997
2 53660  97.6032 141.7953 0001477 114.9578 245.1800 15.01259298167425
STARLINK-4472           
1 53661U 22105P   25261.66173368 -.00001975  00000+0 -14921-3 0  9990
2 53661  97.6030 141.8027 0002481  59.8375 300.3095 15.01267670167428
STARLINK-4357           
1 53662U 22105Q   25261.65618526 -.00000483  00000+0 -33057-4 0  9995
2 53662  97.6029 141.7911 0002982  82.7154 277.4410 15.01257964167424
STARLINK-4457           
1 53663U 22105R   25261.66149140 -.00000073  00000+0 -11614-5 0  9999
2 53663  97.6032 141.7984 0002518  66.8108 293.3382 15.01262417167420
STARLINK-4471           
1 53664U 22105S   25261.11900100  .00027938  00000+0  21578-2 0  9995
2 53664  97.6014 141.2682 0002074 137.0126 223.1261 15.01492760167343
STARLINK-4334           
1 53665U 22105T   25261.65408562 -.00000578  00000+0 -40480-4 0  9998
2 53665  97.6022 141.8040 0001809  91.6742 268.4690 15.01259314167424
STARLINK-4406           
1 53667U 22105V   25261.65778439  .00000744  00000+0  62437-4 0  9992
2 53667  97.6030 141.7929 0001659  74.9119 285.2289 15.01250792167427
STARLINK-4458           
1 53668U 22105W   25261.65038396 -.00000572  00000+0 -40040-4 0  9991
2 53668  97.6027 141.7577 0001370  98.8839 261.2541 15.01259644167427
STARLINK-4464           
1 53669U 22105X   25261.65594201 -.00000834  00000+0 -60359-4 0  9990
2 53669  97.6030 141.7832 0002093  98.1054 262.0408 15.01264110167426
STARLINK-4459           
1 53670U 22105Y   25261.64668002 -.00000151  00000+0 -72405-5 0  9990
2 53670  97.6018 141.7791 0000869 174.4105 185.7129 15.01258989167420
STARLINK-4440           
1 53671U 22105Z   25261.64691341 -.00000827  00000+0 -59830-4 0  9999
2 53671  97.6020 141.7832 0001753  90.4038 269.7388 15.01258636167424
STARLINK-4428           
1 53672U 22105AA  25261.90032704  .00000121  00000+0  13979-4 0  9990
2 53672  97.6037 142.0495 0001415 109.7597 250.3780 15.01259855167461
