[{"OBJECT_NAME":"STARLINK-4466","OBJECT_ID":"2022-105J","EPOCH":"2025-09-18T15:55:12.731520","MEAN_MOTION":15.01260025,"ECCENTRICITY":0.00022205,"INCLINATION":97.6028,"RA_OF_ASC_NODE":141.8057,"ARG_OF_PERICENTER":58.7308,"MEAN_ANOMALY":301.4133,"EPHEMERIS_TYPE":0,"CLASSIFICATION_TYPE":"U","NORAD_CAT_ID":53656,"ELEMENT_SET_NO":999,"REV_AT_EPOCH":16742,"BSTAR":-0.00011490356,"MEAN_MOTION_DOT":-1.534e-5,"MEAN_MOTION_DDOT":0},{"OBJECT_NAME":"STARLINK-4469","OBJECT_ID":"2022-105K","EPOCH":"2025-09-18T22:00:01.999584","MEAN_MOTION":15.47913761,"ECCENTRICITY":0.00016643,"INCLINATION":97.6546,"RA_OF_ASC_NODE":144.9632,"ARG_OF_PERICENTER":83.1182,"MEAN_ANOMALY":140.5048,"EPHEMERIS_TYPE":0,"CLASSIFICATION_TYPE":"U","NORAD_CAT_ID":53657,"ELEMENT_SET_NO":999,"REV_AT_EPOCH":586,"BSTAR":0.010748144,"MEAN_MOTION_DOT":0.00604463,"MEAN_MOTION_DDOT":0},{"OBJECT_NAME":"STARLINK-4452","OBJECT_ID":"2022-105L","EPOCH":"2025-09-18T22:21:47.920032","MEAN_MOTION":15.01261311,"ECCENTRICITY":0.00030895,"INCLINATION":97.6032,"RA_OF_ASC_NODE":142.0648,"ARG_OF_PERICENTER":69.256,"MEAN_ANOMALY":290.8995,"EPHEMERIS_TYPE":0,"CLASSIFICATION_TYPE":"U","NORAD_CAT_ID":53658,"ELEMENT_SET_NO":999,"REV_AT_EPOCH":16746,"BSTAR":3.009819e-5,"MEAN_MOTION_DOT":3.28e-6,"MEAN_MOTION_DDOT":0},{"OBJECT_NAME":"STARLINK-4463","OBJECT_ID":"2022-105M","EPOCH":"2025-09-18T22:24:49.287456","MEAN_MOTION":15.0126209,"ECCENTRICITY":0.00033805,"INCLINATION":97.6019,"RA_OF_ASC_NODE":142.0665,"ARG_OF_PERICENTER":68.4412,"MEAN_ANOMALY":291.7172,"EPHEMERIS_TYPE":0,"CLASSIFICATION_TYPE":"U","NORAD_CAT_ID":53659,"ELEMENT_SET_NO":999,"REV_AT_EPOCH":16746,"BSTAR":4.7279263e-5,"MEAN_MOTION_DOT":5.49e-6,"MEAN_MOTION_DDOT":0},{"OBJECT_NAME":"STARLINK-4473","OBJECT_ID":"2022-105N","EPOCH":"2025-09-18T15:49:52.854528","MEAN_MOTION":15.01259298,"ECCENTRICITY":0.00014773,"INCLINATION":97.6032,"RA_OF_ASC_NODE":141.7953,"ARG_OF_PERICENTER":114.9578,"MEAN_ANOMALY":245.18,"EPHEMERIS_TYPE":0,"CLASSIFICATION_TYPE":"U","NORAD_CAT_ID":53660,"ELEMENT_SET_NO":999,"REV_AT_EPOCH":16742,"BSTAR":1.757184e-6,"MEAN_MOTION_DOT":-3.6e-7,"MEAN_MOTION_DDOT":0},{"OBJECT_NAME":"STARLINK-4472","OBJECT_ID":"2022-105P","EPOCH":"2025-09-18T15:52:53.789952","MEAN_MOTION":15.0126767,"ECCENTRICITY":0.00024818,"INCLINATION":97.603,"RA_OF_ASC_NODE":141.8027,"ARG_OF_PERICENTER":59.8375,"MEAN_ANOMALY":300.3095,"EPHEMERIS_TYPE":0,"CLASSIFICATION_TYPE":"U","NORAD_CAT_ID":53661,"ELEMENT_SET_NO":999,"REV_AT_EPOCH":16742,"BSTAR":-0.00014921499,"MEAN_MOTION_DOT":-1.975e-5,"MEAN_MOTION_DDOT":0},{"OBJECT_NAME":"STARLINK-4357","OBJECT_ID":"2022-105Q","EPOCH":"2025-09-18T15:44:54.406464","MEAN_MOTION":15.01257964,"ECCENTRICITY":0.00029825,"INCLINATION":97.6029,"RA_OF_ASC_NODE":141.7911,"ARG_OF_PERICENTER":82.7154,"MEAN_ANOMALY":277.441,"EPHEMERIS_TYPE":0,"CLASSIFICATION_TYPE":"U","NORAD_CAT_ID":53662,"ELEMENT_SET_NO":999,"REV_AT_EPOCH":16742,"BSTAR":-3.3056687e-5,"MEAN_MOTION_DOT":-4.83e-6,"MEAN_MOTION_DDOT":0},{"OBJECT_NAME":"STARLINK-4457","OBJECT_ID":"2022-105R","EPOCH":"2025-09-18T15:52:32.856960","MEAN_MOTION":15.01262417,"ECCENTRICITY":0.00025188,"INCLINATION":97.6032,"RA_OF_ASC_NODE":141.7984,"ARG_OF_PERICENTER":66.8108,"MEAN_ANOMALY":293.3382,"EPHEMERIS_TYPE":0,"CLASSIFICATION_TYPE":"U","NORAD_CAT_ID":53663,"ELEMENT_SET_NO":999,"REV_AT_EPOCH":16742,"BSTAR":-1.161418e-6,"MEAN_MOTION_DOT":-7.3e-7,"MEAN_MOTION_DDOT":0},{"OBJECT_NAME":"STARLINK-4471","OBJECT_ID":"2022-105S","EPOCH":"2025-09-18T02:51:21.686400","MEAN_MOTION":15.0149276,"ECCENTRICITY":0.00020747,"INCLINATION":97.6014,"RA_OF_ASC_NODE":141.2682,"ARG_OF_PERICENTER":137.0126,"MEAN_ANOMALY":223.1261,"EPHEMERIS_TYPE":0,"CLASSIFICATION_TYPE":"U","NORAD_CAT_ID":53664,"ELEMENT_SET_NO":999,"REV_AT_EPOCH":16734,"BSTAR":0.0021578263,"MEAN_MOTION_DOT":0.00027938,"MEAN_MOTION_DDOT":0},{"OBJECT_NAME":"STARLINK-4334","OBJECT_ID":"2022-105T","EPOCH":"2025-09-18T15:41:52.997568","MEAN_MOTION":15.01259314,"ECCENTRICITY":0.00018094,"INCLINATION":97.6022,"RA_OF_ASC_NODE":141.804,"ARG_OF_PERICENTER":91.6742,"MEAN_ANOMALY":268.469,"EPHEMERIS_TYPE":0,"CLASSIFICATION_TYPE":"U","NORAD_CAT_ID":53665,"ELEMENT_SET_NO":999,"REV_AT_EPOCH":16742,"BSTAR":-4.0479625e-5,"MEAN_MOTION_DOT":-5.78e-6,"MEAN_MOTION_DDOT":0},{"OBJECT_NAME":"STARLINK-4406","OBJECT_ID":"2022-105V","EPOCH":"2025-09-18T15:47:12.571296","MEAN_MOTION":15.01250792,"ECCENTRICITY":0.00016598,"INCLINATION":97.603,"RA_OF_ASC_NODE":141.7929,"ARG_OF_PERICENTER":74.9119,"MEAN_ANOMALY":285.2289,"EPHEMERIS_TYPE":0,"CLASSIFICATION_TYPE":"U","NORAD_CAT_ID":53667,"ELEMENT_SET_NO":999,"REV_AT_EPOCH":16742,"BSTAR":6.2437031e-5,"MEAN_MOTION_DOT":7.44e-6,"MEAN_MOTION_DDOT":0},{"OBJECT_NAME":"STARLINK-4458","OBJECT_ID":"2022-105W","EPOCH":"2025-09-18T15:36:33.174144","MEAN_MOTION":15.01259644,"ECCENTRICITY":0.00013708,"INCLINATION":97.6027,"RA_OF_ASC_NODE":141.7577,"ARG_OF_PERICENTER":98.8839,"MEAN_ANOMALY":261.2541,"EPHEMERIS_TYPE":0,"CLASSIFICATION_TYPE":"U","NORAD_CAT_ID":53668,"ELEMENT_SET_NO":999,"REV_AT_EPOCH":16742,"BSTAR":-4.0039744e-5,"MEAN_MOTION_DOT":-5.72e-6,"MEAN_MOTION_DDOT":0},{"OBJECT_NAME":"STARLINK-4464","OBJECT_ID":"2022-105X","EPOCH":"2025-09-18T15:44:33.389664","MEAN_MOTION":15.0126411,"ECCENTRICITY":0.00020935,"INCLINATION":97.603,"RA_OF_ASC_NODE":141.7832,"ARG_OF_PERICENTER":98.1054,"MEAN_ANOMALY":262.0408,"EPHEMERIS_TYPE":0,"CLASSIFICATION_TYPE":"U","NORAD_CAT_ID":53669,"ELEMENT_SET_NO":999,"REV_AT_EPOCH":16742,"BSTAR":-6.0358538e-5,"MEAN_MOTION_DOT":-8.34e-6,"MEAN_MOTION_DDOT":0},{"OBJECT_NAME":"STARLINK-4459","OBJECT_ID":"2022-105Y","EPOCH":"2025-09-18T15:31:13.153728","MEAN_MOTION":15.01258989,"ECCENTRICITY":8.694e-5,"INCLINATION":97.6018,"RA_OF_ASC_NODE":141.7791,"ARG_OF_PERICENTER":174.4105,"MEAN_ANOMALY":185.7129,"EPHEMERIS_TYPE":0,"CLASSIFICATION_TYPE":"U","NORAD_CAT_ID":53670,"ELEMENT_SET_NO":999,"REV_AT_EPOCH":16742,"BSTAR":-7.240481e-6,"MEAN_MOTION_DOT":-1.51e-6,"MEAN_MOTION_DDOT":0},{"OBJECT_NAME":"STARLINK-4440","OBJECT_ID":"2022-105Z","EPOCH":"2025-09-18T15:31:33.318624","MEAN_MOTION":15.01258636,"ECCENTRICITY":0.00017533,"INCLINATION":97.602,"RA_OF_ASC_NODE":141.7832,"ARG_OF_PERICENTER":90.4038,"MEAN_ANOMALY":269.7388,"EPHEMERIS_TYPE":0,"CLASSIFICATION_TYPE":"U","NORAD_CAT_ID":53671,"ELEMENT_SET_NO":999,"REV_AT_EPOCH":16742,"BSTAR":-5.9829515e-5,"MEAN_MOTION_DOT":-8.27e-6,"MEAN_MOTION_DDOT":0},{"OBJECT_NAME":"STARLINK-4428","OBJECT_ID":"2022-105AA","EPOCH":"2025-09-18T21:36:28.256256","MEAN_MOTION":15.01259855,"ECCENTRICITY":0.0001415,"INCLINATION":97.6037,"RA_OF_ASC_NODE":142.0495,"ARG_OF_PERICENTER":109.7597,"MEAN_ANOMALY":250.378,"EPHEMERIS_TYPE":0,"CLASSIFICATION_TYPE":"U","NORAD_CAT_ID":53672,"ELEMENT_SET_NO":999,"REV_AT_EPOCH":16746,"BSTAR":1.3978861e-5,"MEAN_MOTION_DOT":1.21e-6,"MEAN_MOTION_DDOT":0}]
